KAZEOSAT 1              
1 39731U 14024A   24119.80997651  .00000551  00000+0  18129-3 0  9990
2 39731  98.3955 197.0648 0001230  87.2519 272.8811 14.42006406526286
COSMOS 2496             
1 39761U 14028A   24119.56605951  .00000053  00000+0  31209-3 0  9990
2 39761  82.4460 237.0326 0018733 340.8789  19.1585 12.42892118450664
COSMOS 2497             
1 39762U 14028B   24119.62008390  .00000059  00000+0  35868-3 0  9993
2 39762  82.4506 238.3787 0019282 334.0471  25.9640 12.42879172450677
COSMOS 2498             
1 39763U 14028C   24119.56971664  .00000059  00000+0  35357-3 0  9993
2 39763  82.4470 237.2232 0019904 334.2958  25.7131 12.42938096450690
COSMOS 2499 (RS-47)     
1 39765U 14028E   24119.86043963  .00000045  00000+0  12495-3 0  9993
2 39765  82.4509  58.2888 0232454  31.5384 329.9414 12.82872505465314
SPROUT                  
1 39770U 14029E   24119.37663086  .00136220  00000+0  41072-2 0  9997
2 39770  98.0096 267.2572 0006776 290.0679  69.9832 15.33725564539982
HODOYOSHI-4             
1 40011U 14033B   24119.88339737  .00002511  00000+0  30588-3 0  9997
2 40011  97.5876 332.0105 0025459   5.7895 354.3609 14.84016865533052
UNISAT-6                
1 40012U 14033C   24119.43760348  .00006711  00000+0  88320-3 0  9998
2 40012  97.6994 283.9212 0054429 107.4552 253.2620 14.79426341530489
DEIMOS-2                
1 40013U 14033D   24119.85179518  .00003144  00000+0  34415-3 0  9991
2 40013  97.6866   8.0049 0002356  72.2383 287.9091 14.88488345534421
BUGSAT-1 (TITA)         
1 40014U 14033E   24119.56174983  .00006307  00000+0  46461-3 0  9999
2 40014  98.1311 158.6700 0033982 301.3275  58.4624 15.03268524538187
SAUDISAT 4              
1 40016U 14033G   24119.40477732  .00002169  00000+0  30867-3 0  9997
2 40016  97.6627 287.6887 0048385  90.6273 270.0482 14.77026419530856
APRIZESAT 9             
1 40018U 14033J   24119.35784208  .00002518  00000+0  39624-3 0  9990
2 40018  97.7962 267.0456 0069061 185.9483 174.0913 14.71773520528743
BRITE-CA1 (TORONTO)     
1 40020U 14033L   24119.85283589  .00002344  00000+0  38652-3 0  9991
2 40020  97.8698 258.7404 0082270 249.2885 109.9488 14.69189533527734
DUCHIFAT-1              
1 40021U 14033M   24119.47840469  .00013683  00000+0  94933-3 0  9998
2 40021  98.0902 100.8285 0010520 266.1130  93.8893 15.05676473536646
NANOSATC-BR1            
1 40024U 14033Q   24119.40237708  .00016726  00000+0  12753-2 0  9990
2 40024  98.0597  89.4944 0006334 348.8351  11.2731 15.02095176535774
QB50P1                  
1 40025U 14033R   24119.83130988  .00009762  00000+0  81335-3 0  9995
2 40025  98.0384  79.0124 0008160 335.7429  24.3407 14.98826065535996
DTUSAT-2                
1 40030U 14033W   24119.85475031  .00008242  00000+0  71039-3 0  9996
2 40030  98.0041  71.0356 0008821 326.0813  33.9843 14.97554636535828
FLOCK 1C-4              
1 40031U 14033X   24119.48227580  .00015221  00000+0  10514-2 0  9995
2 40031  98.0746  93.6101 0004051 292.2072  67.8723 15.05848706535738
QB50P2                  
1 40032U 14033Y   24119.82501345  .00008354  00000+0  71898-3 0  9990
2 40032  98.0055  71.0173 0008454 333.6651  26.4140 14.97611660535804
PERSEUS-M1              
1 40039U 14033AF  24119.69560363  .00003573  00000+0  37660-3 0  9994
2 40039  97.9062  46.5243 0013180   5.7170 354.4195 14.89915722534829
POLYITAN-1              
1 40042U 14033AJ  24119.85246348  .00012475  00000+0  97395-3 0  9992
2 40042  98.0614  82.1770 0012638 306.1829  53.8225 15.01219246535946
TIGRISAT                
1 40043U 14033AK  24119.40547081  .00005796  00000+0  77770-3 0  9995
2 40043  97.6916 284.3127 0057025 105.5870 255.1646 14.78570304530100
AISAT                   
1 40054U 14034B   24119.57199220  .00007907  00000+0  86537-3 0  9991
2 40054  98.3434 332.3569 0008909 283.6552  76.3670 14.88074152530438
CANX-4                  
1 40055U 14034C   24119.77018724  .00002291  00000+0  32604-3 0  9990
2 40055  98.3960 312.4752 0013222 354.2796   5.8260 14.77845288529282
CANX-5                  
1 40056U 14034D   24119.50483460  .00002258  00000+0  32140-3 0  9993
2 40056  98.3963 312.1998 0013257 355.3086   4.7997 14.77853619520022
VELOX-I                 
1 40057U 14034E   24119.87867101  .00006087  00000+0  71342-3 0  9993
2 40057  98.3478 332.6746 0008023 306.6123  53.4352 14.85371872530389
GONETS-M 10             
1 40063U 14036C   24119.56387696  .00000037  00000+0  19265-3 0  9999
2 40063  82.5098  71.8793 0022902  44.9885 315.3045 12.42911651445393
METEOR-M 2              
1 40069U 14037A   24119.88098574  .00000319  00000+0  16643-3 0  9995
2 40069  98.4364 116.3258 0006603 133.4409 226.7319 14.20943271508624
DX1                     
1 40071U 14037C   24119.89069447  .00003253  00000+0  39218-3 0  9999
2 40071  98.3357  30.1420 0006481 285.9934  74.0565 14.84571573530323
UKUBE-1                 
1 40074U 14037F   24119.75499689  .00009275  00000+0  89976-3 0  9998
2 40074  98.3425  46.6818 0002635 206.8900 153.2182 14.92901648531401
GAOFEN-2                
1 40118U 14049A   24119.87933063  .00002171  00000+0  28829-3 0  9990
2 40118  97.6651 172.6530 0003813 228.7368 131.3517 14.80749779523934
BRITE-PL2 (HEWELIUSZ)   
1 40119U 14049B   24119.54697980  .00004215  00000+0  45825-3 0  9996
2 40119  97.8784 219.4601 0016534 163.8563 196.3184 14.88515082525190
HODOYOSHI-1             
1 40299U 14070B   24119.82225320  .00024726  00000+0  51852-3 0  9991
2 40299  97.1431 180.6136 0007847 203.3238 156.7657 15.45352827527499
CBERS 4                 
1 40336U 14079A   24119.83866242  .00000363  00000+0  14114-3 0  9998
2 40336  98.4024 189.4513 0001769 105.5102 254.6279 14.35485673492166
SMAP                    
1 40376U 15003A   24119.86542873  .00001273  00000+0  25536-3 0  9995
2 40376  98.1294 126.9555 0001181  97.7292 262.4044 14.63385201493646
CP10 (EXOCUBE)          
1 40380U 15003E   24119.76108514  .00149245  00000+0  11387-2 0  9999
2 40380  99.0979 131.2670 0041242 281.9315  77.7319 15.70586882511643
GONETS-M 11             
1 40552U 15020A   24119.87162856  .00000011  00000+0  56888-5 0  9995
2 40552  82.4850 156.5537 0014801 261.0172  98.9232 12.42866208411963
GONETS-M 12             
1 40553U 15020B   24119.60475464  .00000026  00000+0  11538-3 0  9996
2 40553  82.4886 157.6240 0013638 244.7837 115.1829 12.42878768411888
GONETS-M 13             
1 40554U 15020C   24119.81814918  .00000028  00000+0  13155-3 0  9990
2 40554  82.4845 156.3551 0012430 227.3497 132.6536 12.42868771411964
DMC3-FM1                
1 40715U 15032A   24119.86298133  .00001553  00000+0  19483-3 0  9996
2 40715  97.7568   0.2097 0007296  93.5594 266.6454 14.83541429474265
DMC3-FM2                
1 40716U 15032B   24119.88603304  .00001560  00000+0  19564-3 0  9997
2 40716  97.7620   1.2686 0009221  97.6116 262.6146 14.83545508474261
DMC3-FM3                
1 40717U 15032C   24119.90891917  .00001244  00000+0  15742-3 0  9993
2 40717  97.7668   2.5405 0010689  94.9955 265.2479 14.83503585474276
CARBONITE 1 (CBNT-1)    
1 40718U 15032D   24119.86071664  .00003139  00000+0  43865-3 0  9990
2 40718  97.6628 322.3970 0014840 329.3566  30.6777 14.78221051473978
DEORBITSAIL             
1 40719U 15032E   24119.90310408  .00007653  00000+0  88242-3 0  9991
2 40719  97.6930 344.9213 0012046 302.7185  57.2869 14.85891336474776
2015-049A               
1 40899U 15049A   24119.85635483  .00024206  00000+0  65212-3 0  9990
2 40899  97.4697 134.8944 0011504 124.8502 235.3826 15.37763507477056
KAITUO 1A               
1 40904U 15049F   24119.82668201  .00040142  00000+0  90866-3 0  9998
2 40904  97.4886 135.0222 0010526 127.3478 232.8729 15.42965732476826
2015-049G               
1 40905U 15049G   24119.81404180  .00011819  00000+0  44290-3 0  9991
2 40905  97.5249 128.4311 0013275 148.3611 211.8428 15.27339601476176
XW-2C                   
1 40906U 15049H   24119.83635869  .00028472  00000+0  72845-3 0  9994
2 40906  97.4826 135.4700 0011242 117.3474 242.8917 15.39323329476879
XW-2D                   
1 40907U 15049J   24119.80955333  .00043398  00000+0  91002-3 0  9993
2 40907  97.4769 137.4849 0009810 109.4422 250.7887 15.45224814477067
LILACSAT-2              
1 40908U 15049K   24119.81276750  .00010287  00000+0  41100-3 0  9999
2 40908  97.5269 128.2011 0013575 155.8182 204.3696 15.25239845475962
XW-2B                   
1 40911U 15049N   24119.87894472  .00038396  00000+0  82254-3 0  9992
2 40911  97.4746 137.7214 0009875 110.5561 249.6747 15.44620235476948
COSMOS 2507             
1 40920U 15050A   24119.87343537  .00000041  00000+0  22312-3 0  9990
2 40920  82.4955 204.8118 0008595 241.4917 118.5298 12.42887109390074
COSMOS 2508             
1 40921U 15050B   24119.81931989  .00000036  00000+0  18963-3 0  9990
2 40921  82.4908 203.6440 0012468 281.9023  78.0659 12.42869764390055
COSMOS 2509             
1 40922U 15050C   24119.84626762  .00000036  00000+0  18790-3 0  9992
2 40922  82.4909 203.7103 0014753 297.1735  62.7840 12.42878361390068
LAPAN-A2                
1 40931U 15052B   24105.10210969  .00001784  00000+0  15468-3 0  9996
2 40931   5.9979  90.5798 0013295 253.4384 106.4283 14.77734280462071
LQSAT                   
1 40958U 15057A   24119.87418543  .00001408  00000+0  21793-3 0  9998
2 40958  97.6714 142.6292 0016083 281.1610  78.7792 14.74628771460349
LINGQIAO VIDEO A        
1 40959U 15057B   24119.88660171  .00001441  00000+0  22124-3 0  9992
2 40959  97.6706 143.7955 0015965 280.6362  79.3050 14.74948785460428
LINGQIAO VIDEO B        
1 40960U 15057C   24119.85155186  .00001680  00000+0  25579-3 0  9998
2 40960  97.6717 144.9011 0016082 281.1151  78.8251 14.75094968460457
JILIN-1                 
1 40961U 15057D   24119.81820534  .00001693  00000+0  25408-3 0  9996
2 40961  97.6751 147.6557 0015973 277.3497  82.5898 14.75708527460552
